{
  "type": "FeatureCollection",
  "features": [
    {
      "type": "Feature",
      "properties": {
        "norad_id": 40938,
        "name": "BEIDOU-3S IGSO-2S (C56)",
        "group": "beidou",
        "lat": 25.84825456010831,
        "lon": 56.52343244543592,
        "alt_km": 35598.12429065902,
        "timestamp": "2025-12-19T14:48:36.512627+00:00",
        "meta_object_name": "BEIDOU-3S IGSO-2S (C56)",
        "meta_object_id": "2015-053A",
        "meta_epoch": "2025-12-18T17:10:26.885280",
        "meta_mean_motion": 1.00268888,
        "meta_eccentricity": 0.00604928,
        "meta_inclination": 49.5013,
        "meta_ra_of_asc_node": 260.935,
        "meta_arg_of_pericenter": 188.6507,
        "meta_mean_anomaly": 351.508,
        "meta_ephemeris_type": 0,
        "meta_classification_type": "U",
        "meta_norad_cat_id": 40938,
        "meta_element_set_no": 999,
        "meta_rev_at_epoch": 3754,
        "meta_bstar": 0,
        "meta_mean_motion_dot": -1.17e-06,
        "meta_mean_motion_ddot": 0,
        "tle_line1": "1 40938U 15053A   25352.71558895 -.00000117  00000+0  00000+0 0  9991",
        "tle_line2": "2 40938  49.5013 260.9350 0060492 188.6507 351.5080  1.00268888 37541"
      },
      "geometry": {
        "type": "Point",
        "coordinates": [
          56.52343244543592,
          25.84825456010831
        ]
      }
    },
    {
      "type": "Feature",
      "properties": {
        "norad_id": 41434,
        "name": "BEIDOU-2 IGSO-6 (C13)",
        "group": "beidou",
        "lat": 3.937629508107246,
        "lon": 42.149985888005055,
        "alt_km": 35960.23782465717,
        "timestamp": "2025-12-19T14:48:36.512639+00:00",
        "meta_object_name": "BEIDOU-2 IGSO-6 (C13)",
        "meta_object_id": "2016-021A",
        "meta_epoch": "2025-12-18T14:33:38.837664",
        "meta_mean_motion": 1.00292299,
        "meta_eccentricity": 0.00610054,
        "meta_inclination": 59.9732,
        "meta_ra_of_asc_node": 39.8392,
        "meta_arg_of_pericenter": 230.2031,
        "meta_mean_anomaly": 129.1398,
        "meta_ephemeris_type": 0,
        "meta_classification_type": "U",
        "meta_norad_cat_id": 41434,
        "meta_element_set_no": 999,
        "meta_rev_at_epoch": 3566,
        "meta_bstar": 0,
        "meta_mean_motion_dot": -1.41e-06,
        "meta_mean_motion_ddot": 0,
        "tle_line1": "1 41434U 16021A   25352.60669951 -.00000141  00000+0  00000+0 0  9990",
        "tle_line2": "2 41434  59.9732  39.8392 0061005 230.2031 129.1398  1.00292299 35667"
      },
      "geometry": {
        "type": "Point",
        "coordinates": [
          42.149985888005055,
          3.937629508107246
        ]
      }
    },
    {
      "type": "Feature",
      "properties": {
        "norad_id": 41586,
        "name": "BEIDOU-2 G7 (C03)",
        "group": "beidou",
        "lat": -0.18454437820324432,
        "lon": 61.05322546154581,
        "alt_km": 35764.6012126229,
        "timestamp": "2025-12-19T14:48:36.512650+00:00",
        "meta_object_name": "BEIDOU-2 G7 (C03)",
        "meta_object_id": "2016-037A",
        "meta_epoch": "2025-12-19T01:48:17.629920",
        "meta_mean_motion": 1.00272235,
        "meta_eccentricity": 0.00051456,
        "meta_inclination": 1.772,
        "meta_ra_of_asc_node": 67.8336,
        "meta_arg_of_pericenter": 3.0969,
        "meta_mean_anomaly": 154.5255,
        "meta_ephemeris_type": 0,
        "meta_classification_type": "U",
        "meta_norad_cat_id": 41586,
        "meta_element_set_no": 999,
        "meta_rev_at_epoch": 508,
        "meta_bstar": 0,
        "meta_mean_motion_dot": -3.3e-06,
        "meta_mean_motion_ddot": 0,
        "tle_line1": "1 41586U 16037A   25353.07520405 -.00000330  00000+0  00000+0 0  9997",
        "tle_line2": "2 41586   1.7720  67.8336 0005145   3.0969 154.5255  1.00272235  5080"
      },
      "geometry": {
        "type": "Point",
        "coordinates": [
          61.05322546154581,
          -0.18454437820324432
        ]
      }
    },
    {
      "type": "Feature",
      "properties": {
        "norad_id": 43001,
        "name": "BEIDOU-3 M1 (C19)",
        "group": "beidou",
        "lat": -48.543224043298565,
        "lon": -62.59066998066808,
        "alt_km": 21519.709240148703,
        "timestamp": "2025-12-19T14:48:36.512662+00:00",
        "meta_object_name": "BEIDOU-3 M1 (C19)",
        "meta_object_id": "2017-069A",
        "meta_epoch": "2025-12-18T04:17:57.582816",
        "meta_mean_motion": 1.86231385,
        "meta_eccentricity": 0.00094787,
        "meta_inclination": 56.5315,
        "meta_ra_of_asc_node": 69.054,
        "meta_arg_of_pericenter": 302.4467,
        "meta_mean_anomaly": 57.4905,
        "meta_ephemeris_type": 0,
        "meta_classification_type": "U",
        "meta_norad_cat_id": 43001,
        "meta_element_set_no": 999,
        "meta_rev_at_epoch": 5523,
        "meta_bstar": 0,
        "meta_mean_motion_dot": -6.5e-07,
        "meta_mean_motion_ddot": 0,
        "tle_line1": "1 43001U 17069A   25352.17913869 -.00000065  00000+0  00000+0 0  9992",
        "tle_line2": "2 43001  56.5315  69.0540 0009478 302.4467  57.4905  1.86231385 55235"
      },
      "geometry": {
        "type": "Point",
        "coordinates": [
          -62.59066998066808,
          -48.543224043298565
        ]
      }
    },
    {
      "type": "Feature",
      "properties": {
        "norad_id": 43002,
        "name": "BEIDOU-3 M2 (C20)",
        "group": "beidou",
        "lat": -53.593104754968444,
        "lon": 5.4716148507649,
        "alt_km": 21521.03360997547,
        "timestamp": "2025-12-19T14:48:36.512672+00:00",
        "meta_object_name": "BEIDOU-3 M2 (C20)",
        "meta_object_id": "2017-069B",
        "meta_epoch": "2025-12-19T04:35:39.539904",
        "meta_mean_motion": 1.86231009,
        "meta_eccentricity": 0.00065189,
        "meta_inclination": 56.532,
        "meta_ra_of_asc_node": 69.0565,
        "meta_arg_of_pericenter": 330.2695,
        "meta_mean_anomaly": 29.7276,
        "meta_ephemeris_type": 0,
        "meta_classification_type": "U",
        "meta_norad_cat_id": 43002,
        "meta_element_set_no": 999,
        "meta_rev_at_epoch": 5524,
        "meta_bstar": 0,
        "meta_mean_motion_dot": -5.5e-07,
        "meta_mean_motion_ddot": 0,
        "tle_line1": "1 43002U 17069B   25353.19142986 -.00000055  00000+0  00000+0 0  9999",
        "tle_line2": "2 43002  56.5320  69.0565 0006518 330.2695  29.7276  1.86231009 55240"
      },
      "geometry": {
        "type": "Point",
        "coordinates": [
          5.4716148507649,
          -53.593104754968444
        ]
      }
    },
    {
      "type": "Feature",
      "properties": {
        "norad_id": 43107,
        "name": "BEIDOU-3 M7 (C27)",
        "group": "beidou",
        "lat": 53.757828796278844,
        "lon": 51.84727866766282,
        "alt_km": 21514.535148138788,
        "timestamp": "2025-12-19T14:48:36.512684+00:00",
        "meta_object_name": "BEIDOU-3 M7 (C27)",
        "meta_object_id": "2018-003A",
        "meta_epoch": "2025-12-18T09:32:16.089216",
        "meta_mean_motion": 1.86232527,
        "meta_eccentricity": 0.00028894,
        "meta_inclination": 54.4914,
        "meta_ra_of_asc_node": 308.6174,
        "meta_arg_of_pericenter": 69.2572,
        "meta_mean_anomaly": 290.7611,
        "meta_ephemeris_type": 0,
        "meta_classification_type": "U",
        "meta_norad_cat_id": 43107,
        "meta_element_set_no": 999,
        "meta_rev_at_epoch": 5398,
        "meta_bstar": 0,
        "meta_mean_motion_dot": -8.5e-07,
        "meta_mean_motion_ddot": 0,
        "tle_line1": "1 43107U 18003A   25352.39740844 -.00000085  00000+0  00000+0 0  9995",
        "tle_line2": "2 43107  54.4914 308.6174 0002889  69.2572 290.7611  1.86232527 53988"
      },
      "geometry": {
        "type": "Point",
        "coordinates": [
          51.84727866766282,
          53.757828796278844
        ]
      }
    },
    {
      "type": "Feature",
      "properties": {
        "norad_id": 43108,
        "name": "BEIDOU-3 M8 (C28)",
        "group": "beidou",
        "lat": 35.423233921817264,
        "lon": 98.03381091120518,
        "alt_km": 21533.957880435133,
        "timestamp": "2025-12-19T14:48:36.512695+00:00",
        "meta_object_name": "BEIDOU-3 M8 (C28)",
        "meta_object_id": "2018-003B",
        "meta_epoch": "2025-12-17T06:26:34.084320",
        "meta_mean_motion": 1.8623095,
        "meta_eccentricity": 0.00046498,
        "meta_inclination": 54.4854,
        "meta_ra_of_asc_node": 308.6394,
        "meta_arg_of_pericenter": 276.4476,
        "meta_mean_anomaly": 83.4857,
        "meta_ephemeris_type": 0,
        "meta_classification_type": "U",
        "meta_norad_cat_id": 43108,
        "meta_element_set_no": 999,
        "meta_rev_at_epoch": 5397,
        "meta_bstar": 0,
        "meta_mean_motion_dot": -9.2e-07,
        "meta_mean_motion_ddot": 0,
        "tle_line1": "1 43108U 18003B   25351.26845005 -.00000092  00000+0  00000+0 0  9994",
        "tle_line2": "2 43108  54.4854 308.6394 0004649 276.4476  83.4857  1.86230950 53973"
      },
      "geometry": {
        "type": "Point",
        "coordinates": [
          98.03381091120518,
          35.423233921817264
        ]
      }
    }
  ]
}